[{"OBJECT_NAME":"SCD 1","OBJECT_ID":"1993-009B","EPOCH":"2026-03-06T20:09:25.435008","MEAN_MOTION":14.46065997,"ECCENTRICITY":0.0042144,"INCLINATION":24.9686,"RA_OF_ASC_NODE":119.484,"ARG_OF_PERICENTER":134.4993,"MEAN_ANOMALY":26.3982,"EPHEMERIS_TYPE":0,"CLASSIFICATION_TYPE":"U","NORAD_CAT_ID":22490,"ELEMENT_SET_NO":999,"REV_AT_EPOCH":74628,"BSTAR":0.00010973,"MEAN_MOTION_DOT":5.88e-6,"MEAN_MOTION_DDOT":0},{"OBJECT_NAME":"TECHSAT 1B (GO-32)","OBJECT_ID":"1998-043D","EPOCH":"2026-03-06T22:19:39.120960","MEAN_MOTION":14.24405146,"ECCENTRICITY":0.0001986,"INCLINATION":99.0026,"RA_OF_ASC_NODE":56.1354,"ARG_OF_PERICENTER":123.9868,"MEAN_ANOMALY":236.1498,"EPHEMERIS_TYPE":0,"CLASSIFICATION_TYPE":"U","NORAD_CAT_ID":25397,"ELEMENT_SET_NO":999,"REV_AT_EPOCH":43677,"BSTAR":6.4601e-5,"MEAN_MOTION_DOT":1.03e-6,"MEAN_MOTION_DDOT":0},{"OBJECT_NAME":"SCD 2","OBJECT_ID":"1998-060A","EPOCH":"2026-03-07T01:27:03.698208","MEAN_MOTION":14.45481219,"ECCENTRICITY":0.0016964,"INCLINATION":24.9966,"RA_OF_ASC_NODE":341.9559,"ARG_OF_PERICENTER":123.6135,"MEAN_ANOMALY":321.7056,"EPHEMERIS_TYPE":0,"CLASSIFICATION_TYPE":"U","NORAD_CAT_ID":25504,"ELEMENT_SET_NO":999,"REV_AT_EPOCH":44553,"BSTAR":9.321e-5,"MEAN_MOTION_DOT":5.16e-6,"MEAN_MOTION_DDOT":0},{"OBJECT_NAME":"DLR-TUBSAT","OBJECT_ID":"1999-029B","EPOCH":"2026-03-07T04:43:36.283008","MEAN_MOTION":14.52396323,"ECCENTRICITY":0.0013239,"INCLINATION":98.6663,"RA_OF_ASC_NODE":58.3662,"ARG_OF_PERICENTER":303.0072,"MEAN_ANOMALY":56.985,"EPHEMERIS_TYPE":0,"CLASSIFICATION_TYPE":"U","NORAD_CAT_ID":25757,"ELEMENT_SET_NO":999,"REV_AT_EPOCH":41844,"BSTAR":5.5419e-5,"MEAN_MOTION_DOT":1.77e-6,"MEAN_MOTION_DDOT":0},{"OBJECT_NAME":"TERRA","OBJECT_ID":"1999-068A","EPOCH":"2026-03-07T04:22:44.122368","MEAN_MOTION":14.61011101,"ECCENTRICITY":0.0002549,"INCLINATION":97.9598,"RA_OF_ASC_NODE":119.7129,"ARG_OF_PERICENTER":157.7007,"MEAN_ANOMALY":269.8251,"EPHEMERIS_TYPE":0,"CLASSIFICATION_TYPE":"U","NORAD_CAT_ID":25994,"ELEMENT_SET_NO":999,"REV_AT_EPOCH":39471,"BSTAR":0.00011129,"MEAN_MOTION_DOT":5.02e-6,"MEAN_MOTION_DDOT":0},{"OBJECT_NAME":"MAROC-TUBSAT","OBJECT_ID":"2001-056D","EPOCH":"2026-03-07T00:13:33.951936","MEAN_MOTION":13.7025783,"ECCENTRICITY":0.0020357,"INCLINATION":99.8006,"RA_OF_ASC_NODE":240.9593,"ARG_OF_PERICENTER":46.3061,"MEAN_ANOMALY":72.8258,"EPHEMERIS_TYPE":0,"CLASSIFICATION_TYPE":"U","NORAD_CAT_ID":27004,"ELEMENT_SET_NO":999,"REV_AT_EPOCH":21219,"BSTAR":1.848e-5,"MEAN_MOTION_DOT":-3.0e-7,"MEAN_MOTION_DDOT":0},{"OBJECT_NAME":"AQUA","OBJECT_ID":"2002-022A","EPOCH":"2026-03-07T05:16:53.076000","MEAN_MOTION":14.61969233,"ECCENTRICITY":5.82e-5,"INCLINATION":98.4172,"RA_OF_ASC_NODE":33.54,"ARG_OF_PERICENTER":69.71,"MEAN_ANOMALY":348.1417,"EPHEMERIS_TYPE":0,"CLASSIFICATION_TYPE":"U","NORAD_CAT_ID":27424,"ELEMENT_SET_NO":999,"REV_AT_EPOCH":26837,"BSTAR":0.00027967,"MEAN_MOTION_DOT":1.352e-5,"MEAN_MOTION_DDOT":0},{"OBJECT_NAME":"IRS-P6 (RESOURCESAT-1)","OBJECT_ID":"2003-046A","EPOCH":"2026-03-07T05:34:19.058592","MEAN_MOTION":14.36115836,"ECCENTRICITY":0.0062967,"INCLINATION":98.2046,"RA_OF_ASC_NODE":107.6771,"ARG_OF_PERICENTER":288.6261,"MEAN_ANOMALY":148.1512,"EPHEMERIS_TYPE":0,"CLASSIFICATION_TYPE":"U","NORAD_CAT_ID":28051,"ELEMENT_SET_NO":999,"REV_AT_EPOCH":16589,"BSTAR":0.00013152,"MEAN_MOTION_DOT":3.5e-6,"MEAN_MOTION_DDOT":0},{"OBJECT_NAME":"SHIYAN-1 (SY-1)","OBJECT_ID":"2004-012A","EPOCH":"2026-03-07T04:30:01.855872","MEAN_MOTION":15.30942019,"ECCENTRICITY":0.0006092,"INCLINATION":97.8769,"RA_OF_ASC_NODE":137.818,"ARG_OF_PERICENTER":32.389,"MEAN_ANOMALY":327.7722,"EPHEMERIS_TYPE":0,"CLASSIFICATION_TYPE":"U","NORAD_CAT_ID":28220,"ELEMENT_SET_NO":999,"REV_AT_EPOCH":19547,"BSTAR":0.00052411,"MEAN_MOTION_DOT":0.00015609,"MEAN_MOTION_DDOT":0},{"OBJECT_NAME":"AURA","OBJECT_ID":"2004-026A","EPOCH":"2026-03-07T02:16:28.642944","MEAN_MOTION":14.61141228,"ECCENTRICITY":0.000102,"INCLINATION":98.3308,"RA_OF_ASC_NODE":21.7809,"ARG_OF_PERICENTER":81.7081,"MEAN_ANOMALY":278.4235,"EPHEMERIS_TYPE":0,"CLASSIFICATION_TYPE":"U","NORAD_CAT_ID":28376,"ELEMENT_SET_NO":999,"REV_AT_EPOCH":15130,"BSTAR":0.00028373,"MEAN_MOTION_DOT":1.348e-5,"MEAN_MOTION_DDOT":0},{"OBJECT_NAME":"IRS-P5 (CARTOSAT-1)","OBJECT_ID":"2005-017A","EPOCH":"2026-03-07T01:32:00.318048","MEAN_MOTION":14.90752835,"ECCENTRICITY":0.0002401,"INCLINATION":97.5414,"RA_OF_ASC_NODE":93.728,"ARG_OF_PERICENTER":72.0615,"MEAN_ANOMALY":288.0866,"EPHEMERIS_TYPE":0,"CLASSIFICATION_TYPE":"U","NORAD_CAT_ID":28649,"ELEMENT_SET_NO":999,"REV_AT_EPOCH":12860,"BSTAR":0.00017806,"MEAN_MOTION_DOT":1.697e-5,"MEAN_MOTION_DDOT":0},{"OBJECT_NAME":"SINAH 1","OBJECT_ID":"2005-043D","EPOCH":"2026-03-07T03:46:59.498112","MEAN_MOTION":14.64069551,"ECCENTRICITY":0.0013529,"INCLINATION":98.2679,"RA_OF_ASC_NODE":199.9787,"ARG_OF_PERICENTER":232.8069,"MEAN_ANOMALY":127.1899,"EPHEMERIS_TYPE":0,"CLASSIFICATION_TYPE":"U","NORAD_CAT_ID":28893,"ELEMENT_SET_NO":999,"REV_AT_EPOCH":8559,"BSTAR":0.0001269,"MEAN_MOTION_DOT":6.17e-6,"MEAN_MOTION_DDOT":0},{"OBJECT_NAME":"RESURS-DK 1","OBJECT_ID":"2006-021A","EPOCH":"2026-03-06T21:22:18.571872","MEAN_MOTION":15.12718353,"ECCENTRICITY":0.0002145,"INCLINATION":69.931,"RA_OF_ASC_NODE":244.2641,"ARG_OF_PERICENTER":163.7769,"MEAN_ANOMALY":196.3466,"EPHEMERIS_TYPE":0,"CLASSIFICATION_TYPE":"U","NORAD_CAT_ID":29228,"ELEMENT_SET_NO":999,"REV_AT_EPOCH":8710,"BSTAR":0.0002019,"MEAN_MOTION_DOT":3.438e-5,"MEAN_MOTION_DDOT":0},{"OBJECT_NAME":"ARIRANG-2 (KOMPSAT-2)","OBJECT_ID":"2006-031A","EPOCH":"2026-03-07T04:06:54.404064","MEAN_MOTION":14.64584991,"ECCENTRICITY":0.0015403,"INCLINATION":97.8294,"RA_OF_ASC_NODE":255.5463,"ARG_OF_PERICENTER":41.2595,"MEAN_ANOMALY":93.1608,"EPHEMERIS_TYPE":0,"CLASSIFICATION_TYPE":"U","NORAD_CAT_ID":29268,"ELEMENT_SET_NO":999,"REV_AT_EPOCH":4654,"BSTAR":5.1759e-5,"MEAN_MOTION_DOT":2.3e-6,"MEAN_MOTION_DDOT":0},{"OBJECT_NAME":"LAPAN-TUBSAT","OBJECT_ID":"2007-001A","EPOCH":"2026-03-07T05:36:13.792608","MEAN_MOTION":14.85827461,"ECCENTRICITY":0.0012643,"INCLINATION":98.1331,"RA_OF_ASC_NODE":63.1782,"ARG_OF_PERICENTER":151.3577,"MEAN_ANOMALY":208.8334,"EPHEMERIS_TYPE":0,"CLASSIFICATION_TYPE":"U","NORAD_CAT_ID":29709,"ELEMENT_SET_NO":999,"REV_AT_EPOCH":3601,"BSTAR":0.0001065,"MEAN_MOTION_DOT":8.7e-6,"MEAN_MOTION_DDOT":0},{"OBJECT_NAME":"HAIYANG-1B","OBJECT_ID":"2007-010A","EPOCH":"2026-03-06T22:05:46.667328","MEAN_MOTION":14.30998297,"ECCENTRICITY":0.0014181,"INCLINATION":98.3427,"RA_OF_ASC_NODE":51.7728,"ARG_OF_PERICENTER":140.4764,"MEAN_ANOMALY":219.7456,"EPHEMERIS_TYPE":0,"CLASSIFICATION_TYPE":"U","NORAD_CAT_ID":31113,"ELEMENT_SET_NO":999,"REV_AT_EPOCH":98600,"BSTAR":6.8865e-5,"MEAN_MOTION_DOT":1.4e-6,"MEAN_MOTION_DDOT":0},{"OBJECT_NAME":"COSMO-SKYMED 1","OBJECT_ID":"2007-023A","EPOCH":"2026-03-07T04:34:23.302272","MEAN_MOTION":14.96508951,"ECCENTRICITY":9.92e-5,"INCLINATION":97.8866,"RA_OF_ASC_NODE":257.2026,"ARG_OF_PERICENTER":100.1471,"MEAN_ANOMALY":259.9861,"EPHEMERIS_TYPE":0,"CLASSIFICATION_TYPE":"U","NORAD_CAT_ID":31598,"ELEMENT_SET_NO":999,"REV_AT_EPOCH":1453,"BSTAR":0.0003557,"MEAN_MOTION_DOT":3.983e-5,"MEAN_MOTION_DDOT":0}]
