SCD 1                   
1 22490U 93009B   26065.83987772  .00000588  00000+0  10973-3 0  9991
2 22490  24.9686 119.4840 0042144 134.4993  26.3982 14.46065997746287
TECHSAT 1B (GO-32)      
1 25397U 98043D   26065.93031390  .00000103  00000+0  64601-4 0  9991
2 25397  99.0026  56.1354 0001986 123.9868 236.1498 14.24405146436770
SCD 2                   
1 25504U 98060A   26066.06045947  .00000516  00000+0  93210-4 0  9994
2 25504  24.9966 341.9559 0016964 123.6135 321.7056 14.45481219445531
DLR-TUBSAT              
1 25757U 99029B   26066.19694772  .00000177  00000+0  55419-4 0  9992
2 25757  98.6663  58.3662 0013239 303.0072  56.9850 14.52396323418441
TERRA                   
1 25994U 99068A   26066.18245512  .00000502  00000+0  11129-3 0  9992
2 25994  97.9598 119.7129 0002549 157.7007 269.8251 14.61011101394718
MAROC-TUBSAT            
1 27004U 01056D   26066.00942074 -.00000030  00000+0  18480-4 0  9999
2 27004  99.8006 240.9593 0020357  46.3061  72.8258 13.70257830212199
AQUA                    
1 27424U 02022A   26066.22005875  .00001352  00000+0  27967-3 0  9998
2 27424  98.4172  33.5400 0000582  69.7100 348.1417 14.61969233268373
IRS-P6 (RESOURCESAT-1)  
1 28051U 03046A   26066.23216503  .00000350  00000+0  13152-3 0  9993
2 28051  98.2046 107.6771 0062967 288.6261 148.1512 14.36115836165898
SHIYAN-1 (SY-1)         
1 28220U 04012A   26066.18752148  .00015609  00000+0  52411-3 0  9993
2 28220  97.8769 137.8180 0006092  32.3890 327.7722 15.30942019195472
AURA                    
1 28376U 04026A   26066.09477596  .00001348  00000+0  28373-3 0  9996
2 28376  98.3308  21.7809 0001020  81.7081 278.4235 14.61141228151305
IRS-P5 (CARTOSAT-1)     
1 28649U 05017A   26066.06389257  .00001697  00000+0  17806-3 0  9999
2 28649  97.5414  93.7280 0002401  72.0615 288.0866 14.90752835128607
SINAH 1                 
1 28893U 05043D   26066.15763308  .00000617  00000+0  12690-3 0  9999
2 28893  98.2679 199.9787 0013529 232.8069 127.1899 14.64069551 85598
RESURS-DK 1             
1 29228U 06021A   26065.89049273  .00003438  00000+0  20190-3 0  9995
2 29228  69.9310 244.2641 0002145 163.7769 196.3466 15.12718353 87104
ARIRANG-2 (KOMPSAT-2)   
1 29268U 06031A   26066.17146301  .00000230  00000+0  51759-4 0  9995
2 29268  97.8294 255.5463 0015403  41.2595  93.1608 14.64584991 46544
LAPAN-TUBSAT            
1 29709U 07001A   26066.23349297  .00000870  00000+0  10650-3 0  9993
2 29709  98.1331  63.1782 0012643 151.3577 208.8334 14.85827461 36010
HAIYANG-1B              
1 31113U 07010A   26065.92067902  .00000140  00000+0  68865-4 0  9992
2 31113  98.3427  51.7728 0014181 140.4764 219.7456 14.30998297986004
COSMO-SKYMED 1          
1 31598U 07023A   26066.19054748  .00003983  00000+0  35570-3 0  9991
2 31598  97.8866 257.2026 0000992 100.1471 259.9861 14.96508951 14531
